SHIJIAN-6 02B (SJ-6 02B)
1 29506U 06046B   26072.03117534  .00002417  00000+0  19369-3 0  9993
2 29506  97.7074 101.7387 0013865  32.9100 327.2984 15.01017278 56315
SHIJIAN-6 03A (SJ-6 03A)
1 33408U 08053A   26071.98828830  .00004227  00000+0  22283-3 0  9990
2 33408  97.8538 101.9832 0011124 352.2529   7.8529 15.16111704948381
SHIJIAN-6 04B (SJ-6 04B)
1 37180U 10051B   26071.98034079  .00000459  00000+0  42834-4 0  9994
2 37180  97.8751  76.4035 0008978 281.6956  78.3259 14.99125047841269
SHIJIAN-16 (SJ-16)      
1 39358U 13057A   26071.98096382  .00003379  00000+0  33226-3 0  9995
2 39358  74.9728 178.8580 0015392 104.1103 256.1797 14.92365263671994
SHIJIAN-20 (SJ-20)      
1 44910U 19097A   26071.85625134 -.00000002  00000+0  00000+0 0  9995
2 44910   4.6699  76.2395 0001536  16.3150  96.4860  1.00082407 22736
CAPELLA-11 (ACADIA-1)   
1 57693U 23126A   26071.86034072  .00003273  00000+0  45154-3 0  9996
2 57693  53.0051 241.5000 0002549 127.5905 232.5304 14.80571571137848
ICEYE-X35               
1 58302U 23174AY  26072.01950566  .00040207  00000+0  85783-3 0  9990
2 58302  97.3850 154.4975 0010765 182.0371 178.0836 15.44720539130465
CAPELLA-14 (ACADIA-4)   
1 59444U 24066C   26071.34557154  .00022845  00000+0  13693-2 0  9998
2 59444  45.6049  46.0365 0004067 131.8141 228.3093 15.10673029 97823
CAPELLA-13 (ACADIA-3)   
1 60419U 24142A   26071.35486700 -.00007143  00000+0 -75286-3 0  9999
2 60419  53.0064 120.2379 0001310  99.2032 260.9096 14.87642553 85992
CAPELLA-15 (ACADIA-5)   
1 60544U 24149CE  26071.57501174 -.00003113  00000+0 -29862-3 0  9994
2 60544  97.6855 146.8612 0004118  61.8229 298.3406 14.92437598 85446
ICEYE-X51               
1 63257U 25052AZ  26071.98821319  .00005622  00000+0  44628-3 0  9995
2 63257  97.7361 327.4155 0002089  64.8302 295.3138 15.00894278 54371
CAPELLA-17 (ACADIA-7)   
1 64583U 25135BH  26071.79294865  .00010187  00000+0  10373-2 0  9990
2 64583  97.7562 186.9266 0004403 321.1739  38.9163 14.90903126 39488
CAPELLA-16 (ACADIA-6)   
1 65318U 25188D   26071.71763476  .00008060  00000+0  76993-3 0  9994
2 65318  97.7404 148.2924 0004694 188.7741 171.3398 14.93525871 29519
SHIJIAN-30A (SJ-30A)    
1 66545U 25266A   26071.96090822  .00009823  00000+0  52842-3 0  9994
2 66545  51.7982 270.1590 0011393 302.9254  57.0626 15.15404982 17267
ICEYE-X62               
1 66755U 25276CT  26071.91668981 -.00034821  00000+0 -19900-2 0  9995
2 66755  97.4275 147.0348 0001877  19.9717 180.5253 15.12819493  5786
CAPELLA-19 (ACADIA-9)   
1 67384U 26004X   26071.54599255  .00006816  00000+0  77301-3 0  9991
2 67384  97.8129  71.6661 0001275 133.6197 226.5125 14.86660787  8912
CAPELLA-18 (ACADIA-8)   
1 67385U 26004Y   26071.98213599  .00006282  00000+0  67787-3 0  9998
2 67385  97.8012  72.2002 0005578  80.0416 280.1430 14.88714988  8986
