[ {"OBJECT_NAME": "ICEYE-X62", "NORAD_CAT_ID": 66755, "MEAN_MOTION": 15.12819493, "ECCENTRICITY": 0.0001877, "INCLINATION": 97.4275, "RA_OF_ASC_NODE": 147.0348, "ARG_OF_PERICENTER": 19.9717, "MEAN_ANOMALY": 180.5253, "BSTAR": -0.00199, "EPOCH": "2026-03-12T22:00:01"}, {"OBJECT_NAME": "ICEYE-X51", "NORAD_CAT_ID": 63257, "MEAN_MOTION": 15.00894278, "ECCENTRICITY": 0.0002089, "INCLINATION": 97.7361, "RA_OF_ASC_NODE": 327.4155, "ARG_OF_PERICENTER": 64.8302, "MEAN_ANOMALY": 295.3138, "BSTAR": 0.00044628, "EPOCH": "2026-03-12T23:43:01"}, {"OBJECT_NAME": "ICEYE-X35", "NORAD_CAT_ID": 58302, "MEAN_MOTION": 15.44720539, "ECCENTRICITY": 0.0010765, "INCLINATION": 97.385, "RA_OF_ASC_NODE": 154.4975, "ARG_OF_PERICENTER": 182.0371, "MEAN_ANOMALY": 178.0836, "BSTAR": 0.00085783, "EPOCH": "2026-03-13T00:28:05"}, {"OBJECT_NAME": "CAPELLA-11 (ACADIA-1)", "NORAD_CAT_ID": 57693, "MEAN_MOTION": 14.80571571, "ECCENTRICITY": 0.0002549, "INCLINATION": 53.0051, "RA_OF_ASC_NODE": 241.5, "ARG_OF_PERICENTER": 127.5905, "MEAN_ANOMALY": 232.5304, "BSTAR": 0.00045154, "EPOCH": "2026-03-12T20:38:53"}, {"OBJECT_NAME": "CAPELLA-14 (ACADIA-4)", "NORAD_CAT_ID": 59444, "MEAN_MOTION": 15.10673029, "ECCENTRICITY": 0.0004067, "INCLINATION": 45.6049, "RA_OF_ASC_NODE": 46.0365, "ARG_OF_PERICENTER": 131.8141, "MEAN_ANOMALY": 228.3093, "BSTAR": 0.0013693, "EPOCH": "2026-03-12T08:17:37"}, {"OBJECT_NAME": "CAPELLA-13 (ACADIA-3)", "NORAD_CAT_ID": 60419, "MEAN_MOTION": 14.87642553, "ECCENTRICITY": 0.000131, "INCLINATION": 53.0064, "RA_OF_ASC_NODE": 120.2379, "ARG_OF_PERICENTER": 99.2032, "MEAN_ANOMALY": 260.9096, "BSTAR": -0.0007528599999999999, "EPOCH": "2026-03-12T08:31:00"}, {"OBJECT_NAME": "CAPELLA-15 (ACADIA-5)", "NORAD_CAT_ID": 60544, "MEAN_MOTION": 14.92437598, "ECCENTRICITY": 0.0004118, "INCLINATION": 97.6855, "RA_OF_ASC_NODE": 146.8612, "ARG_OF_PERICENTER": 61.8229, "MEAN_ANOMALY": 298.3406, "BSTAR": -0.00029862, "EPOCH": "2026-03-12T13:48:01"}, {"OBJECT_NAME": "CAPELLA-17 (ACADIA-7)", "NORAD_CAT_ID": 64583, "MEAN_MOTION": 14.90903126, "ECCENTRICITY": 0.0004403, "INCLINATION": 97.7562, "RA_OF_ASC_NODE": 186.9266, "ARG_OF_PERICENTER": 321.1739, "MEAN_ANOMALY": 38.9163, "BSTAR": 0.0010373000000000001, "EPOCH": "2026-03-12T19:01:50"}, {"OBJECT_NAME": "CAPELLA-16 (ACADIA-6)", "NORAD_CAT_ID": 65318, "MEAN_MOTION": 14.93525871, "ECCENTRICITY": 0.0004694, "INCLINATION": 97.7404, "RA_OF_ASC_NODE": 148.2924, "ARG_OF_PERICENTER": 188.7741, "MEAN_ANOMALY": 171.3398, "BSTAR": 0.00076993, "EPOCH": "2026-03-12T17:13:23"}, {"OBJECT_NAME": "CAPELLA-19 (ACADIA-9)", "NORAD_CAT_ID": 67384, "MEAN_MOTION": 14.86660787, "ECCENTRICITY": 0.0001275, "INCLINATION": 97.8129, "RA_OF_ASC_NODE": 71.6661, "ARG_OF_PERICENTER": 133.6197, "MEAN_ANOMALY": 226.5125, "BSTAR": 0.00077301, "EPOCH": "2026-03-12T13:06:13"}, {"OBJECT_NAME": "CAPELLA-18 (ACADIA-8)", "NORAD_CAT_ID": 67385, "MEAN_MOTION": 14.88714988, "ECCENTRICITY": 0.0005578, "INCLINATION": 97.8012, "RA_OF_ASC_NODE": 72.2002, "ARG_OF_PERICENTER": 80.0416, "MEAN_ANOMALY": 280.143, "BSTAR": 0.00067787, "EPOCH": "2026-03-12T23:34:16"}, {"OBJECT_NAME": "SHIJIAN-16 (SJ-16)", "NORAD_CAT_ID": 39358, "MEAN_MOTION": 14.92365263, "ECCENTRICITY": 0.0015392, "INCLINATION": 74.9728, "RA_OF_ASC_NODE": 178.858, "ARG_OF_PERICENTER": 104.1103, "MEAN_ANOMALY": 256.1797, "BSTAR": 0.00033226, "EPOCH": "2026-03-12T23:32:35"}, {"OBJECT_NAME": "SHIJIAN-20 (SJ-20)", "NORAD_CAT_ID": 44910, "MEAN_MOTION": 1.00082407, "ECCENTRICITY": 0.0001536, "INCLINATION": 4.6699, "RA_OF_ASC_NODE": 76.2395, "ARG_OF_PERICENTER": 16.315, "MEAN_ANOMALY": 96.486, "BSTAR": 0.0, "EPOCH": "2026-03-12T20:33:00"}, {"OBJECT_NAME": "SHIJIAN-30A (SJ-30A)", "NORAD_CAT_ID": 66545, "MEAN_MOTION": 15.15404982, "ECCENTRICITY": 0.0011393, "INCLINATION": 51.7982, "RA_OF_ASC_NODE": 270.159, "ARG_OF_PERICENTER": 302.9254, "MEAN_ANOMALY": 57.0626, "BSTAR": 0.00052842, "EPOCH": "2026-03-12T23:03:42"}, {"OBJECT_NAME": "SHIJIAN-6 02B (SJ-6 02B)", "NORAD_CAT_ID": 29506, "MEAN_MOTION": 15.01017278, "ECCENTRICITY": 0.0013865, "INCLINATION": 97.7074, "RA_OF_ASC_NODE": 101.7387, "ARG_OF_PERICENTER": 32.91, "MEAN_ANOMALY": 327.2984, "BSTAR": 0.00019369, "EPOCH": "2026-03-13T00:44:53"}, {"OBJECT_NAME": "SHIJIAN-6 03A (SJ-6 03A)", "NORAD_CAT_ID": 33408, "MEAN_MOTION": 15.16111704, "ECCENTRICITY": 0.0011124, "INCLINATION": 97.8538, "RA_OF_ASC_NODE": 101.9832, "ARG_OF_PERICENTER": 352.2529, "MEAN_ANOMALY": 7.8529, "BSTAR": 0.00022283, "EPOCH": "2026-03-12T23:43:08"}, {"OBJECT_NAME": "SHIJIAN-6 04B (SJ-6 04B)", "NORAD_CAT_ID": 37180, "MEAN_MOTION": 14.99125047, "ECCENTRICITY": 0.0008978, "INCLINATION": 97.8751, "RA_OF_ASC_NODE": 76.4035, "ARG_OF_PERICENTER": 281.6956, "MEAN_ANOMALY": 78.3259, "BSTAR": 4.2834000000000004e-05, "EPOCH": "2026-03-12T23:31:41"}]